<?xml version="1.0" encoding="UTF-8"?>
<ndm xmlns:xsi="http://www.w3.org/2001/XMLSchema-instance" xsi:noNamespaceSchemaLocation="https://sanaregistry.org/r/ndmxml_unqualified/ndmxml-2.0.0-master-2.0.xsd">
<omm id="CCSDS_OMM_VERS" version="2.0">
<header><CREATION_DATE/><ORIGINATOR/></header><body><segment><metadata><OBJECT_NAME>SL-16 R/B</OBJECT_NAME><OBJECT_ID>2000-006B</OBJECT_ID><CENTER_NAME>EARTH</CENTER_NAME><REF_FRAME>TEME</REF_FRAME><TIME_SYSTEM>UTC</TIME_SYSTEM><MEAN_ELEMENT_THEORY>SGP4</MEAN_ELEMENT_THEORY></metadata><data><meanElements><EPOCH>2022-06-05T02:12:55.854432</EPOCH><MEAN_MOTION>14.15492066</MEAN_MOTION><ECCENTRICITY>.0014538</ECCENTRICITY><INCLINATION>71.0023</INCLINATION><RA_OF_ASC_NODE>105.1928</RA_OF_ASC_NODE><ARG_OF_PERICENTER>115.7176</ARG_OF_PERICENTER><MEAN_ANOMALY>244.5450</MEAN_ANOMALY></meanElements><tleParameters><EPHEMERIS_TYPE>0</EPHEMERIS_TYPE><CLASSIFICATION_TYPE>U</CLASSIFICATION_TYPE><NORAD_CAT_ID>26070</NORAD_CAT_ID><ELEMENT_SET_NO>999</ELEMENT_SET_NO><REV_AT_EPOCH>15414</REV_AT_EPOCH><BSTAR>.50345E-4</BSTAR><MEAN_MOTION_DOT>.51E-6</MEAN_MOTION_DOT><MEAN_MOTION_DDOT>0</MEAN_MOTION_DDOT></tleParameters></data></segment></body></omm>
<omm id="CCSDS_OMM_VERS" version="2.0">
<header><CREATION_DATE/><ORIGINATOR/></header><body><segment><metadata><OBJECT_NAME>TITAN 4B R/B</OBJECT_NAME><OBJECT_ID>2000-047B</OBJECT_ID><CENTER_NAME>EARTH</CENTER_NAME><REF_FRAME>TEME</REF_FRAME><TIME_SYSTEM>UTC</TIME_SYSTEM><MEAN_ELEMENT_THEORY>SGP4</MEAN_ELEMENT_THEORY></metadata><data><meanElements><EPOCH>2022-06-05T00:17:40.078752</EPOCH><MEAN_MOTION>14.96819862</MEAN_MOTION><ECCENTRICITY>.0051597</ECCENTRICITY><INCLINATION>67.9936</INCLINATION><RA_OF_ASC_NODE>259.7720</RA_OF_ASC_NODE><ARG_OF_PERICENTER>132.0089</ARG_OF_PERICENTER><MEAN_ANOMALY>228.5465</MEAN_ANOMALY></meanElements><tleParameters><EPHEMERIS_TYPE>0</EPHEMERIS_TYPE><CLASSIFICATION_TYPE>U</CLASSIFICATION_TYPE><NORAD_CAT_ID>26474</NORAD_CAT_ID><ELEMENT_SET_NO>999</ELEMENT_SET_NO><REV_AT_EPOCH>18666</REV_AT_EPOCH><BSTAR>.84692E-4</BSTAR><MEAN_MOTION_DOT>.872E-5</MEAN_MOTION_DOT><MEAN_MOTION_DDOT>0</MEAN_MOTION_DDOT></tleParameters></data></segment></body></omm>
<omm id="CCSDS_OMM_VERS" version="2.0">
<header><CREATION_DATE/><ORIGINATOR/></header><body><segment><metadata><OBJECT_NAME>ENVISAT</OBJECT_NAME><OBJECT_ID>2002-009A</OBJECT_ID><CENTER_NAME>EARTH</CENTER_NAME><REF_FRAME>TEME</REF_FRAME><TIME_SYSTEM>UTC</TIME_SYSTEM><MEAN_ELEMENT_THEORY>SGP4</MEAN_ELEMENT_THEORY></metadata><data><meanElements><EPOCH>2022-06-05T04:47:45.790656</EPOCH><MEAN_MOTION>14.38128258</MEAN_MOTION><ECCENTRICITY>.0001293</ECCENTRICITY><INCLINATION>98.1827</INCLINATION><RA_OF_ASC_NODE>137.8825</RA_OF_ASC_NODE><ARG_OF_PERICENTER>88.5447</ARG_OF_PERICENTER><MEAN_ANOMALY>282.9864</MEAN_ANOMALY></meanElements><tleParameters><EPHEMERIS_TYPE>0</EPHEMERIS_TYPE><CLASSIFICATION_TYPE>U</CLASSIFICATION_TYPE><NORAD_CAT_ID>27386</NORAD_CAT_ID><ELEMENT_SET_NO>999</ELEMENT_SET_NO><REV_AT_EPOCH>6177</REV_AT_EPOCH><BSTAR>.39099E-4</BSTAR><MEAN_MOTION_DOT>.78E-6</MEAN_MOTION_DOT><MEAN_MOTION_DDOT>0</MEAN_MOTION_DDOT></tleParameters></data></segment></body></omm>
<omm id="CCSDS_OMM_VERS" version="2.0">
<header><CREATION_DATE/><ORIGINATOR/></header><body><segment><metadata><OBJECT_NAME>IDEFIX &amp; ARIANE 42P R/B</OBJECT_NAME><OBJECT_ID>2002-021B</OBJECT_ID><CENTER_NAME>EARTH</CENTER_NAME><REF_FRAME>TEME</REF_FRAME><TIME_SYSTEM>UTC</TIME_SYSTEM><MEAN_ELEMENT_THEORY>SGP4</MEAN_ELEMENT_THEORY></metadata><data><meanElements><EPOCH>2022-06-04T20:20:16.033056</EPOCH><MEAN_MOTION>14.29414884</MEAN_MOTION><ECCENTRICITY>.001092</ECCENTRICITY><INCLINATION>98.4490</INCLINATION><RA_OF_ASC_NODE>102.2229</RA_OF_ASC_NODE><ARG_OF_PERICENTER>275.2140</ARG_OF_PERICENTER><MEAN_ANOMALY>84.7797</MEAN_ANOMALY></meanElements><tleParameters><EPHEMERIS_TYPE>0</EPHEMERIS_TYPE><CLASSIFICATION_TYPE>U</CLASSIFICATION_TYPE><NORAD_CAT_ID>27422</NORAD_CAT_ID><ELEMENT_SET_NO>999</ELEMENT_SET_NO><REV_AT_EPOCH>4575</REV_AT_EPOCH><BSTAR>.54872E-4</BSTAR><MEAN_MOTION_DOT>.97E-6</MEAN_MOTION_DOT><MEAN_MOTION_DDOT>0</MEAN_MOTION_DDOT></tleParameters></data></segment></body></omm>
<omm id="CCSDS_OMM_VERS" version="2.0">
<header><CREATION_DATE/><ORIGINATOR/></header><body><segment><metadata><OBJECT_NAME>AQUA</OBJECT_NAME><OBJECT_ID>2002-022A</OBJECT_ID><CENTER_NAME>EARTH</CENTER_NAME><REF_FRAME>TEME</REF_FRAME><TIME_SYSTEM>UTC</TIME_SYSTEM><MEAN_ELEMENT_THEORY>SGP4</MEAN_ELEMENT_THEORY></metadata><data><meanElements><EPOCH>2022-06-04T14:33:09.569664</EPOCH><MEAN_MOTION>14.57289343</MEAN_MOTION><ECCENTRICITY>.0000909</ECCENTRICITY><INCLINATION>98.2470</INCLINATION><RA_OF_ASC_NODE>97.6188</RA_OF_ASC_NODE><ARG_OF_PERICENTER>71.9792</ARG_OF_PERICENTER><MEAN_ANOMALY>100.9493</MEAN_ANOMALY></meanElements><tleParameters><EPHEMERIS_TYPE>0</EPHEMERIS_TYPE><CLASSIFICATION_TYPE>U</CLASSIFICATION_TYPE><NORAD_CAT_ID>27424</NORAD_CAT_ID><ELEMENT_SET_NO>999</ELEMENT_SET_NO><REV_AT_EPOCH>6831</REV_AT_EPOCH><BSTAR>.84328E-4</BSTAR><MEAN_MOTION_DOT>.336E-5</MEAN_MOTION_DOT><MEAN_MOTION_DDOT>0</MEAN_MOTION_DDOT></tleParameters></data></segment></body></omm>
<omm id="CCSDS_OMM_VERS" version="2.0">
<header><CREATION_DATE/><ORIGINATOR/></header><body><segment><metadata><OBJECT_NAME>CZ-4B R/B</OBJECT_NAME><OBJECT_ID>2002-024C</OBJECT_ID><CENTER_NAME>EARTH</CENTER_NAME><REF_FRAME>TEME</REF_FRAME><TIME_SYSTEM>UTC</TIME_SYSTEM><MEAN_ELEMENT_THEORY>SGP4</MEAN_ELEMENT_THEORY></metadata><data><meanElements><EPOCH>2022-06-04T22:27:40.672224</EPOCH><MEAN_MOTION>14.14140783</MEAN_MOTION><ECCENTRICITY>.004958</ECCENTRICITY><INCLINATION>99.0620</INCLINATION><RA_OF_ASC_NODE>180.8670</RA_OF_ASC_NODE><ARG_OF_PERICENTER>312.9681</ARG_OF_PERICENTER><MEAN_ANOMALY>109.9300</MEAN_ANOMALY></meanElements><tleParameters><EPHEMERIS_TYPE>0</EPHEMERIS_TYPE><CLASSIFICATION_TYPE>U</CLASSIFICATION_TYPE><NORAD_CAT_ID>27432</NORAD_CAT_ID><ELEMENT_SET_NO>999</ELEMENT_SET_NO><REV_AT_EPOCH>3505</REV_AT_EPOCH><BSTAR>.19661E-4</BSTAR><MEAN_MOTION_DOT>-.9E-7</MEAN_MOTION_DOT><MEAN_MOTION_DDOT>0</MEAN_MOTION_DDOT></tleParameters></data></segment></body></omm>
<omm id="CCSDS_OMM_VERS" version="2.0">
<header><CREATION_DATE/><ORIGINATOR/></header><body><segment><metadata><OBJECT_NAME>MIDORI II (ADEOS-II)</OBJECT_NAME><OBJECT_ID>2002-056A</OBJECT_ID><CENTER_NAME>EARTH</CENTER_NAME><REF_FRAME>TEME</REF_FRAME><TIME_SYSTEM>UTC</TIME_SYSTEM><MEAN_ELEMENT_THEORY>SGP4</MEAN_ELEMENT_THEORY></metadata><data><meanElements><EPOCH>2022-06-04T13:53:33.136800</EPOCH><MEAN_MOTION>14.27609564</MEAN_MOTION><ECCENTRICITY>.0002163</ECCENTRICITY><INCLINATION>98.6063</INCLINATION><RA_OF_ASC_NODE>99.6450</RA_OF_ASC_NODE><ARG_OF_PERICENTER>71.2513</ARG_OF_PERICENTER><MEAN_ANOMALY>288.8903</MEAN_ANOMALY></meanElements><tleParameters><EPHEMERIS_TYPE>0</EPHEMERIS_TYPE><CLASSIFICATION_TYPE>U</CLASSIFICATION_TYPE><NORAD_CAT_ID>27597</NORAD_CAT_ID><ELEMENT_SET_NO>999</ELEMENT_SET_NO><REV_AT_EPOCH>1413</REV_AT_EPOCH><BSTAR>.61358E-4</BSTAR><MEAN_MOTION_DOT>.107E-5</MEAN_MOTION_DOT><MEAN_MOTION_DDOT>0</MEAN_MOTION_DDOT></tleParameters></data></segment></body></omm>
<omm id="CCSDS_OMM_VERS" version="2.0">
<header><CREATION_DATE/><ORIGINATOR/></header><body><segment><metadata><OBJECT_NAME>H-2A R/B</OBJECT_NAME><OBJECT_ID>2002-056E</OBJECT_ID><CENTER_NAME>EARTH</CENTER_NAME><REF_FRAME>TEME</REF_FRAME><TIME_SYSTEM>UTC</TIME_SYSTEM><MEAN_ELEMENT_THEORY>SGP4</MEAN_ELEMENT_THEORY></metadata><data><meanElements><EPOCH>2022-06-04T21:51:19.803168</EPOCH><MEAN_MOTION>14.32072784</MEAN_MOTION><ECCENTRICITY>.0070798</ECCENTRICITY><INCLINATION>98.1764</INCLINATION><RA_OF_ASC_NODE>163.2711</RA_OF_ASC_NODE><ARG_OF_PERICENTER>299.3053</ARG_OF_PERICENTER><MEAN_ANOMALY>134.4391</MEAN_ANOMALY></meanElements><tleParameters><EPHEMERIS_TYPE>0</EPHEMERIS_TYPE><CLASSIFICATION_TYPE>U</CLASSIFICATION_TYPE><NORAD_CAT_ID>27601</NORAD_CAT_ID><ELEMENT_SET_NO>999</ELEMENT_SET_NO><REV_AT_EPOCH>1738</REV_AT_EPOCH><BSTAR>.35374E-4</BSTAR><MEAN_MOTION_DOT>.57E-6</MEAN_MOTION_DOT><MEAN_MOTION_DDOT>0</MEAN_MOTION_DDOT></tleParameters></data></segment></body></omm>
<omm id="CCSDS_OMM_VERS" version="2.0">
<header><CREATION_DATE/><ORIGINATOR/></header><body><segment><metadata><OBJECT_NAME>CZ-4B R/B</OBJECT_NAME><OBJECT_ID>2003-049C</OBJECT_ID><CENTER_NAME>EARTH</CENTER_NAME><REF_FRAME>TEME</REF_FRAME><TIME_SYSTEM>UTC</TIME_SYSTEM><MEAN_ELEMENT_THEORY>SGP4</MEAN_ELEMENT_THEORY></metadata><data><meanElements><EPOCH>2022-06-04T18:30:14.220288</EPOCH><MEAN_MOTION>14.52781928</MEAN_MOTION><ECCENTRICITY>.0051161</ECCENTRICITY><INCLINATION>98.5199</INCLINATION><RA_OF_ASC_NODE>92.3769</RA_OF_ASC_NODE><ARG_OF_PERICENTER>105.6888</ARG_OF_PERICENTER><MEAN_ANOMALY>254.9960</MEAN_ANOMALY></meanElements><tleParameters><EPHEMERIS_TYPE>0</EPHEMERIS_TYPE><CLASSIFICATION_TYPE>U</CLASSIFICATION_TYPE><NORAD_CAT_ID>28059</NORAD_CAT_ID><ELEMENT_SET_NO>999</ELEMENT_SET_NO><REV_AT_EPOCH>98697</REV_AT_EPOCH><BSTAR>.47399E-4</BSTAR><MEAN_MOTION_DOT>.149E-5</MEAN_MOTION_DOT><MEAN_MOTION_DDOT>0</MEAN_MOTION_DDOT></tleParameters></data></segment></body></omm>

</ndm>
